PHISAT 2                
1 60470U 24149C   26068.78834181  .00008925  00000+0  31421-3 0  9996
2 60470  97.3806 148.6498 0001175 168.6230 191.5037 15.29548631 86792
STARLINK-35570          
1 66090U 25236E   26068.33105382  .00022963  00000+0  78500-3 0  9990
2 66090  53.1572 105.2583 0001274  88.6862 271.4284 15.30200309 22894
